{"type": "FeatureCollection", "features": [ {"type": "Feature", "properties": {"norad_id": 35088, "name": "FENGYUN 1C DEB", "group": "fengyun-1c-debris", "lat": 37.784904794700765, "lon": 164.24168567906477, "alt_km": 975.6635692055979, "timestamp": "2025-12-23T09:49:07.370796+00:00", "meta": {"OBJECT_NAME": "FENGYUN 1C DEB", "OBJECT_ID": "1999-025DJQ", "EPOCH": "2025-12-20T06:48:25.112736", "MEAN_MOTION": 14.12178698, "ECCENTRICITY": 0.02665925, "INCLINATION": 94.6216, "RA_OF_ASC_NODE": 166.2192, "ARG_OF_PERICENTER": 179.9936, "MEAN_ANOMALY": 180.1297, "EPHEMERIS_TYPE": 0, "CLASSIFICATION_TYPE": "U", "NORAD_CAT_ID": 35088, "ELEMENT_SET_NO": 999, "REV_AT_EPOCH": 58906, "BSTAR": 0.004541836, "MEAN_MOTION_DOT": 0.00011675, "MEAN_MOTION_DDOT": 0}, "tle": {"line1": "1 35088U 99025DJQ 25354.28362399  .00011675  00000+0  45418-2 0  9993", "line2": "2 35088  94.6216 166.2192 0266592 179.9936 180.1297 14.12178698589068"}}, "geometry": {"type": "Point", "coordinates": [164.24168567906477, 37.784904794700765]}}, {"type": "Feature", "properties": {"norad_id": 35089, "name": "FENGYUN 1C DEB", "group": "fengyun-1c-debris", "lat": -50.06887382322078, "lon": 176.52347119786614, "alt_km": 853.9444212075468, "timestamp": "2025-12-23T09:49:07.370807+00:00", "meta": {"OBJECT_NAME": "FENGYUN 1C DEB", "OBJECT_ID": "1999-025DJR", "EPOCH": "2025-12-19T23:31:50.352096", "MEAN_MOTION": 14.19435221, "ECCENTRICITY": 0.00287186, "INCLINATION": 98.559, "RA_OF_ASC_NODE": 3.5754, "ARG_OF_PERICENTER": 44.1764, "MEAN_ANOMALY": 316.1699, "EPHEMERIS_TYPE": 0, "CLASSIFICATION_TYPE": "U", "NORAD_CAT_ID": 35089, "ELEMENT_SET_NO": 999, "REV_AT_EPOCH": 60978, "BSTAR": 0.00043746491, "MEAN_MOTION_DOT": 8.82e-06, "MEAN_MOTION_DDOT": 0}, "tle": {"line1": "1 35089U 99025DJR 25353.98044389  .00000882  00000+0  43746-3 0  9997", "line2": "2 35089  98.5590   3.5754 0028718  44.1764 316.1699 14.19435221609786"}}, "geometry": {"type": "Point", "coordinates": [176.52347119786614, -50.06887382322078]}}, {"type": "Feature", "properties": {"norad_id": 35090, "name": "FENGYUN 1C DEB", "group": "fengyun-1c-debris", "lat": 55.28786903021939, "lon": -155.99273016353246, "alt_km": 857.708833394895, "timestamp": "2025-12-23T09:49:07.370817+00:00", "meta": {"OBJECT_NAME": "FENGYUN 1C DEB", "OBJECT_ID": "1999-025DJS", "EPOCH": "2025-12-15T11:31:21.871200", "MEAN_MOTION": 14.17610468, "ECCENTRICITY": 0.00548506, "INCLINATION": 99.1994, "RA_OF_ASC_NODE": 2.2725, "ARG_OF_PERICENTER": 7.0781, "MEAN_ANOMALY": 353.1155, "EPHEMERIS_TYPE": 0, "CLASSIFICATION_TYPE": "U", "NORAD_CAT_ID": 35090, "ELEMENT_SET_NO": 999, "REV_AT_EPOCH": 66289, "BSTAR": 0.0011364277, "MEAN_MOTION_DOT": 2.298e-05, "MEAN_MOTION_DDOT": 0}, "tle": {"line1": "1 35090U 99025DJS 25349.48011425  .00002298  00000+0  11364-2 0  9997", "line2": "2 35090  99.1994   2.2725 0054850   7.0781 353.1155 14.17610468662895"}}, "geometry": {"type": "Point", "coordinates": [-155.99273016353246, 55.28786903021939]}}, {"type": "Feature", "properties": {"norad_id": 35091, "name": "FENGYUN 1C DEB", "group": "fengyun-1c-debris", "lat": -13.161927693005968, "lon": 104.15186457850147, "alt_km": 690.529617538059, "timestamp": "2025-12-23T09:49:07.370828+00:00", "meta": {"OBJECT_NAME": "FENGYUN 1C DEB", "OBJECT_ID": "1999-025DJT", "EPOCH": "2025-12-19T05:40:00.748992", "MEAN_MOTION": 14.61713207, "ECCENTRICITY": 0.0049136, "INCLINATION": 98.5976, "RA_OF_ASC_NODE": 97.7869, "ARG_OF_PERICENTER": 271.6969, "MEAN_ANOMALY": 87.8603, "EPHEMERIS_TYPE": 0, "CLASSIFICATION_TYPE": "U", "NORAD_CAT_ID": 35091, "ELEMENT_SET_NO": 999, "REV_AT_EPOCH": 90022, "BSTAR": 0.0018836, "MEAN_MOTION_DOT": 9.504e-05, "MEAN_MOTION_DDOT": 0}, "tle": {"line1": "1 35091U 99025DJT 25353.23611978  .00009504  00000+0  18836-2 0  9993", "line2": "2 35091  98.5976  97.7869 0049136 271.6969  87.8603 14.61713207900220"}}, "geometry": {"type": "Point", "coordinates": [104.15186457850147, -13.161927693005968]}}, {"type": "Feature", "properties": {"norad_id": 35102, "name": "FENGYUN 1C DEB", "group": "fengyun-1c-debris", "lat": -38.693040810451755, "lon": 14.252946982643413, "alt_km": 808.7281451994513, "timestamp": "2025-12-23T09:49:07.370838+00:00", "meta": {"OBJECT_NAME": "FENGYUN 1C DEB", "OBJECT_ID": "1999-025DKE", "EPOCH": "2025-12-13T06:19:02.409312", "MEAN_MOTION": 14.28874039, "ECCENTRICITY": 0.00607637, "INCLINATION": 98.4802, "RA_OF_ASC_NODE": 357.5239, "ARG_OF_PERICENTER": 90.2418, "MEAN_ANOMALY": 270.5727, "EPHEMERIS_TYPE": 0, "CLASSIFICATION_TYPE": "U", "NORAD_CAT_ID": 35102, "ELEMENT_SET_NO": 999, "REV_AT_EPOCH": 64920, "BSTAR": 0.00073405609, "MEAN_MOTION_DOT": 1.848e-05, "MEAN_MOTION_DDOT": 0}, "tle": {"line1": "1 35102U 99025DKE 25347.26322233  .00001848  00000+0  73406-3 0  9993", "line2": "2 35102  98.4802 357.5239 0060763  90.2418 270.5727 14.28874039649201"}}, "geometry": {"type": "Point", "coordinates": [14.252946982643413, -38.693040810451755]}}, {"type": "Feature", "properties": {"norad_id": 35104, "name": "FENGYUN 1C DEB", "group": "fengyun-1c-debris", "lat": 21.980717782249975, "lon": -172.68870402005962, "alt_km": 808.3951468684254, "timestamp": "2025-12-23T09:49:07.370849+00:00", "meta": {"OBJECT_NAME": "FENGYUN 1C DEB", "OBJECT_ID": "1999-025DKG", "EPOCH": "2025-12-20T06:46:17.192352", "MEAN_MOTION": 14.20340868, "ECCENTRICITY": 0.00314522, "INCLINATION": 98.5954, "RA_OF_ASC_NODE": 0.7725, "ARG_OF_PERICENTER": 119.6618, "MEAN_ANOMALY": 257.8395, "EPHEMERIS_TYPE": 0, "CLASSIFICATION_TYPE": "U", "NORAD_CAT_ID": 35104, "ELEMENT_SET_NO": 999, "REV_AT_EPOCH": 89874, "BSTAR": 0.00030233796, "MEAN_MOTION_DOT": 6.08e-06, "MEAN_MOTION_DDOT": 0}, "tle": {"line1": "1 35104U 99025DKG 25354.28214343  .00000608  00000+0  30234-3 0  9992", "line2": "2 35104  98.5954   0.7725 0031452 119.6618 257.8395 14.20340868898744"}}, "geometry": {"type": "Point", "coordinates": [-172.68870402005962, 21.980717782249975]}}, {"type": "Feature", "properties": {"norad_id": 35105, "name": "FENGYUN 1C DEB", "group": "fengyun-1c-debris", "lat": 74.83732219995443, "lon": -56.50605773436183, "alt_km": 686.9451218602326, "timestamp": "2025-12-23T09:49:07.370860+00:00", "meta": {"OBJECT_NAME": "FENGYUN 1C DEB", "OBJECT_ID": "1999-025DKH", "EPOCH": "2025-12-20T16:40:27.119712", "MEAN_MOTION": 14.45399411, "ECCENTRICITY": 0.01124743, "INCLINATION": 98.9445, "RA_OF_ASC_NODE": 336.168, "ARG_OF_PERICENTER": 30.8771, "MEAN_ANOMALY": 329.8969, "EPHEMERIS_TYPE": 0, "CLASSIFICATION_TYPE": "U", "NORAD_CAT_ID": 35105, "ELEMENT_SET_NO": 999, "REV_AT_EPOCH": 94608, "BSTAR": 0.00026626105, "MEAN_MOTION_DOT": 9.59e-06, "MEAN_MOTION_DDOT": 0}, "tle": {"line1": "1 35105U 99025DKH 25354.69475833  .00000959  00000+0  26626-3 0  9990", "line2": "2 35105  98.9445 336.1680 0112474  30.8771 329.8969 14.45399411946081"}}, "geometry": {"type": "Point", "coordinates": [-56.50605773436183, 74.83732219995443]}}, {"type": "Feature", "properties": {"norad_id": 35108, "name": "FENGYUN 1C DEB", "group": "fengyun-1c-debris", "lat": 9.75105375546853, "lon": -8.768056757316145, "alt_km": 780.0345586630119, "timestamp": "2025-12-23T09:49:07.370870+00:00", "meta": {"OBJECT_NAME": "FENGYUN 1C DEB", "OBJECT_ID": "1999-025DKL", "EPOCH": "2025-12-14T17:32:43.265184", "MEAN_MOTION": 14.06913766, "ECCENTRICITY": 0.01353379, "INCLINATION": 98.801, "RA_OF_ASC_NODE": 344.3103, "ARG_OF_PERICENTER": 55.9263, "MEAN_ANOMALY": 305.4667, "EPHEMERIS_TYPE": 0, "CLASSIFICATION_TYPE": "U", "NORAD_CAT_ID": 35108, "ELEMENT_SET_NO": 999, "REV_AT_EPOCH": 89266, "BSTAR": 0.00032621951, "MEAN_MOTION_DOT": 5.49e-06, "MEAN_MOTION_DDOT": 0}, "tle": {"line1": "1 35108U 99025DKL 25348.73105631  .00000549  00000+0  32622-3 0  9995", "line2": "2 35108  98.8010 344.3103 0135337  55.9263 305.4667 14.06913766892660"}}, "geometry": {"type": "Point", "coordinates": [-8.768056757316145, 9.75105375546853]}}, {"type": "Feature", "properties": {"norad_id": 35109, "name": "FENGYUN 1C DEB", "group": "fengyun-1c-debris", "lat": -17.4743085513585, "lon": -10.8364667814456, "alt_km": 724.3340573399146, "timestamp": "2025-12-23T09:49:07.370880+00:00", "meta": {"OBJECT_NAME": "FENGYUN 1C DEB", "OBJECT_ID": "1999-025DKM", "EPOCH": "2025-12-22T18:41:21.131520", "MEAN_MOTION": 14.20890274, "ECCENTRICITY": 0.01528767, "INCLINATION": 98.6159, "RA_OF_ASC_NODE": 345.8129, "ARG_OF_PERICENTER": 5.4113, "MEAN_ANOMALY": 354.8673, "EPHEMERIS_TYPE": 0, "CLASSIFICATION_TYPE": "U", "NORAD_CAT_ID": 35109, "ELEMENT_SET_NO": 999, "REV_AT_EPOCH": 64302, "BSTAR": 0.00028022201, "MEAN_MOTION_DOT": 6.38e-06, "MEAN_MOTION_DDOT": 0}, "tle": {"line1": "1 35109U 99025DKM 25356.77871680  .00000638  00000+0  28022-3 0  9991", "line2": "2 35109  98.6159 345.8129 0152876   5.4113 354.8673 14.20890274643021"}}, "geometry": {"type": "Point", "coordinates": [-10.8364667814456, -17.4743085513585]}}, {"type": "Feature", "properties": {"norad_id": 35111, "name": "FENGYUN 1C DEB", "group": "fengyun-1c-debris", "lat": 3.484585690550462, "lon": -102.79077965472717, "alt_km": 843.0615928088591, "timestamp": "2025-12-23T09:49:07.370891+00:00", "meta": {"OBJECT_NAME": "FENGYUN 1C DEB", "OBJECT_ID": "1999-025DKP", "EPOCH": "2025-12-16T11:54:10.013472", "MEAN_MOTION": 14.10973478, "ECCENTRICITY": 0.0021869, "INCLINATION": 99.4657, "RA_OF_ASC_NODE": 69.3478, "ARG_OF_PERICENTER": 209.5025, "MEAN_ANOMALY": 150.4911, "EPHEMERIS_TYPE": 0, "CLASSIFICATION_TYPE": "U", "NORAD_CAT_ID": 35111, "ELEMENT_SET_NO": 999, "REV_AT_EPOCH": 64197, "BSTAR": 0.00043746639, "MEAN_MOTION_DOT": 7.38e-06, "MEAN_MOTION_DDOT": 0}, "tle": {"line1": "1 35111U 99025DKP 25350.49594923  .00000738  00000+0  43747-3 0  9991", "line2": "2 35111  99.4657  69.3478 0021869 209.5025 150.4911 14.10973478641971"}}, "geometry": {"type": "Point", "coordinates": [-102.79077965472717, 3.484585690550462]}}]}